NORAD_CAT_ID,OBJECT_NAME,OBJECT_TYPE,EPOCH,MEAN_MOTION,ECCENTRICITY,INCLINATION,RA_OF_ASC_NODE,ARG_OF_PERICENTER,MEAN_ANOMALY,BSTAR,MEAN_MOTION_DOT,MEAN_MOTION_DDOT,TLE_LINE0,TLE_LINE1,TLE_LINE2,SEMIMAJOR_AXIS,PERIOD,APOGEE,PERIGEE,DECAYED
49433.0,STARLINK-3079,PAYLOAD,2023-10-08 20:25:58,15.08834212,0.0001208,53.2147,212.3376,87.3262,272.7868,-0.00028177,-4.769e-05,0.0,0 STARLINK-3079,1 49433U 21104AB  23281.85137228 -.00004769  00000-0 -28177-3 0  9999,2 49433  53.2147 212.3376 0001208  87.3262 272.7868 15.08834212106720,6917.898,95.438,540.599,538.927,0.0
49433.0,STARLINK-3079,PAYLOAD,2023-10-09 12:19:49,15.08844081,0.0001429,53.2158,209.3631,74.7063,285.4087,9.8844e-05,1.286e-05,0.0,0 STARLINK-3079,1 49433U 21104AB  23282.51377060  .00001286  00000-0  98844-4 0  9991,2 49433  53.2158 209.3631 0001429  74.7063 285.4087 15.08844081106826,6917.868,95.437,540.721,538.744,0.0
49433.0,STARLINK-3079,PAYLOAD,2023-10-10 12:10:37,15.08841463,0.0001224,53.2162,204.9035,97.4708,262.6423,-6.2272e-05,-1.279e-05,0.0,0 STARLINK-3079,1 49433U 21104AB  23283.50737369 -.00001279  00000-0 -62272-4 0  9993,2 49433  53.2162 204.9035 0001224  97.4708 262.6423 15.08841463106979,6917.876,95.437,540.588,538.894,0.0
49433.0,STARLINK-3079,PAYLOAD,2023-10-10 18:32:10,15.08835291,0.0001641,53.2159,203.7155,85.9042,274.2138,2.643e-05,1.33e-06,0.0,0 STARLINK-3079,1 49433U 21104AB  23283.77233988  .00000133  00000-0  26430-4 0  9992,2 49433  53.2159 203.7155 0001641  85.9042 274.2138 15.08835291107011,6917.895,95.438,540.895,538.625,0.0
49433.0,STARLINK-3079,PAYLOAD,2023-10-11 12:01:24,15.08844131,0.0001517,53.2165,200.4411,94.8588,265.2577,0.00011071,1.475e-05,0.0,0 STARLINK-3079,1 49433U 21104AB  23284.50097732  .00001475  00000-0  11071-3 0  9993,2 49433  53.2165 200.4411 0001517  94.8588 265.2577 15.08844131107125,6917.868,95.437,540.782,538.683,0.0
49433.0,STARLINK-3079,PAYLOAD,2023-10-12 03:55:15,15.08855236,0.000142,53.2165,197.467,97.4063,262.7091,0.00017194,2.451e-05,0.0,0 STARLINK-3079,1 49433U 21104AB  23285.16337172  .00002451  00000-0  17194-3 0  9998,2 49433  53.2165 197.4670 0001420  97.4063 262.7091 15.08855236107229,6917.834,95.437,540.681,538.716,0.0
49433.0,STARLINK-3079,PAYLOAD,2023-10-12 11:52:11,15.08836822,0.000205,53.2165,195.9826,82.1933,277.9291,3.153e-05,2.14e-06,0.0,0 STARLINK-3079,1 49433U 21104AB  23285.49458282  .00000214  00000-0  31530-4 0  9996,2 49433  53.2165 195.9826 0002050  82.1933 277.9291 15.08836822107277,6917.89,95.438,541.173,538.337,0.0
49433.0,STARLINK-3079,PAYLOAD,2023-10-12 18:13:44,15.08838367,0.0001708,53.2159,194.7953,76.2609,283.8573,0.00016048,2.267e-05,0.0,0 STARLINK-3079,1 49433U 21104AB  23285.75954340  .00002267  00000-0  16048-3 0  9997,2 49433  53.2159 194.7953 0001708  76.2609 283.8573 15.08838367107311,6917.885,95.438,540.932,538.569,0.0
49433.0,STARLINK-3079,PAYLOAD,2023-10-12 21:24:30,15.08838207,0.0001472,53.2158,194.2005,80.5483,279.5676,0.00014466,2.015e-05,0.0,0 STARLINK-3079,1 49433U 21104AB  23285.89202298  .00002015  00000-0  14466-3 0  9993,2 49433  53.2158 194.2005 0001472  80.5483 279.5676 15.08838207107330,6917.886,95.438,540.769,538.733,0.0
49433.0,STARLINK-3079,PAYLOAD,2023-10-13 00:35:16,15.08842764,0.0001447,53.2163,193.6033,92.1094,268.0064,0.00019442,2.808e-05,0.0,0 STARLINK-3079,1 49433U 21104AB  23286.02449977  .00002808  00000-0  19442-3 0  9995,2 49433  53.2163 193.6033 0001447  92.1094 268.0064 15.08842764107358,6917.872,95.437,540.738,538.736,0.0
49433.0,STARLINK-3079,PAYLOAD,2023-10-13 22:50:40,15.08847908,0.0001419,53.2161,189.4404,82.2337,277.8816,0.00022508,3.297e-05,0.0,0 STARLINK-3079,1 49433U 21104AB  23286.95185680  .00003297  00000-0  22508-3 0  9995,2 49433  53.2161 189.4404 0001419  82.2337 277.8816 15.08847908107493,6917.856,95.437,540.703,538.74,0.0
49433.0,STARLINK-3079,PAYLOAD,2023-10-14 00:26:03,15.08862816,0.0001295,53.2162,189.1426,90.2978,269.8162,0.00042633,6.508e-05,0.0,0 STARLINK-3079,1 49433U 21104AB  23287.01809150  .00006508  00000-0  42633-3 0  9997,2 49433  53.2162 189.1426 0001295  90.2978 269.8162 15.08862816107509,6917.811,95.436,540.572,538.78,0.0
49433.0,STARLINK-3079,PAYLOAD,2023-10-14 21:06:05,15.08829789,0.0001509,53.216,185.2772,92.5889,267.5275,-9.022e-05,-1.723e-05,0.0,0 STARLINK-3079,1 49433U 21104AB  23287.87922461 -.00001723  00000-0 -90220-4 0  9994,2 49433  53.2160 185.2772 0001509  92.5889 267.5275 15.08829789107638,6917.912,95.438,540.821,538.733,0.0
49433.0,STARLINK-3079,PAYLOAD,2023-10-14 22:41:28,15.08828834,0.0001397,53.2156,184.9796,89.0753,271.04,-0.00010304,-1.927e-05,0.0,0 STARLINK-3079,1 49433U 21104AB  23287.94546564 -.00001927  00000-0 -10304-3 0  9998,2 49433  53.2156 184.9796 0001397  89.0753 271.0400 15.08828834107642,6917.915,95.438,540.746,538.813,0.0
49433.0,STARLINK-3079,PAYLOAD,2023-10-15 09:49:10,15.08832891,0.0001398,53.2157,182.8984,76.7067,283.4081,-6.8256e-05,-1.374e-05,0.0,0 STARLINK-3079,1 49433U 21104AB  23288.40914689 -.00001374  00000-0 -68256-4 0  9993,2 49433  53.2157 182.8984 0001398  76.7067 283.4081 15.08832891107719,6917.902,95.438,540.734,538.8,0.0
49433.0,STARLINK-3079,PAYLOAD,2023-10-15 20:56:52,15.08841595,0.0001406,53.216,180.8165,76.1491,283.9657,-2.9275e-05,-7.54e-06,0.0,0 STARLINK-3079,1 49433U 21104AB  23288.87282539 -.00000754  00000-0 -29275-4 0  9995,2 49433  53.2160 180.8165 0001406  76.1491 283.9657 15.08841595107789,6917.876,95.437,540.713,538.768,0.0
49433.0,STARLINK-3079,PAYLOAD,2023-10-16 00:07:38,15.08850199,0.0001369,53.2154,180.2226,81.0097,279.105,0.00013698,1.893e-05,0.0,0 STARLINK-3079,1 49433U 21104AB  23289.00530114  .00001893  00000-0  13698-3 0  9990,2 49433  53.2154 180.2226 0001369  81.0097 279.1050 15.08850199107806,6917.849,95.437,540.661,538.767,0.0
49433.0,STARLINK-3079,PAYLOAD,2023-10-16 09:39:57,15.08845941,0.0001367,53.2154,178.4381,75.1014,285.013,0.00029515,4.413e-05,0.0,0 STARLINK-3079,1 49433U 21104AB  23289.40274373  .00004413  00000-0  29515-3 0  9992,2 49433  53.2154 178.4381 0001367  75.1014 285.0130 15.08845941107868,6917.862,95.437,540.673,538.782,0.0
49433.0,STARLINK-3079,PAYLOAD,2023-10-16 16:01:30,15.08840461,0.0001666,53.2161,177.2514,73.6223,286.4952,0.00026009,3.854e-05,0.0,0 STARLINK-3079,1 49433U 21104AB  23289.66770845  .00003854  00000-0  26009-3 0  9998,2 49433  53.2161 177.2514 0001666  73.6223 286.4952 15.08840461107902,6917.879,95.438,540.896,538.591,0.0
49433.0,STARLINK-3079,PAYLOAD,2023-10-16 19:12:16,15.08833984,0.0001518,53.2153,176.6552,74.4958,285.6202,0.00021992,3.213e-05,0.0,0 STARLINK-3079,1 49433U 21104AB  23289.80019206  .00003213  00000-0  21992-3 0  9996,2 49433  53.2153 176.6552 0001518  74.4958 285.6202 15.08833984107921,6917.899,95.438,540.814,538.714,0.0
49433.0,STARLINK-3079,PAYLOAD,2023-10-17 09:30:44,15.08842391,0.000135,53.2156,173.9771,80.2868,279.8276,0.00011256,1.504e-05,0.0,0 STARLINK-3079,1 49433U 21104AB  23290.39634545  .00001504  00000-0  11256-3 0  9994,2 49433  53.2156 173.9771 0001350  80.2868 279.8276 15.08842391108015,6917.873,95.437,540.672,538.804,0.0
49433.0,STARLINK-3079,PAYLOAD,2023-10-18 01:24:35,15.088493,0.0001528,53.2148,171.0022,85.1215,274.9951,0.00015325,2.152e-05,0.0,0 STARLINK-3079,1 49433U 21104AB  23291.05874160  .00002152  00000-0  15325-3 0  9998,2 49433  53.2148 171.0022 0001528  85.1215 274.9951 15.08849300108115,6917.852,95.437,540.774,538.66,0.0
49433.0,STARLINK-3079,PAYLOAD,2023-10-18 09:21:31,15.08840001,0.0001911,53.2156,169.517,75.8151,284.3053,2.0042e-06,-2.56e-06,0.0,0 STARLINK-3079,1 49433U 21104AB  23291.38994890 -.00000256  00000-0  20042-5 0  9995,2 49433  53.2156 169.5170 0001911  75.8151 284.3053 15.08840001108163,6917.88,95.438,541.067,538.423,0.0
49433.0,STARLINK-3079,PAYLOAD,2023-10-18 22:04:36,15.0884089,0.00016,53.2151,167.1379,78.3194,281.7978,0.00014013,1.943e-05,0.0,0 STARLINK-3079,1 49433U 21104AB  23291.91987073  .00001943  00000-0  14013-3 0  9991,2 49433  53.2151 167.1379 0001600  78.3194 281.7978 15.08840890108245,6917.878,95.437,540.85,538.636,0.0
49433.0,STARLINK-3079,PAYLOAD,2023-10-19 01:15:22,15.08843655,0.0001525,53.2141,166.5414,89.086,271.0307,0.00017181,2.448e-05,0.0,0 STARLINK-3079,1 49433U 21104AB  23292.05234686  .00002448  00000-0  17181-3 0  9992,2 49433  53.2141 166.5414 0001525  89.0860 271.0307 15.08843655108264,6917.869,95.437,540.789,538.679,0.0
49433.0,STARLINK-3079,PAYLOAD,2023-10-19 21:55:22,15.08857493,0.0001423,53.2152,162.6751,84.6559,275.4596,0.00042117,6.424e-05,0.0,0 STARLINK-3079,1 49433U 21104AB  23292.91345900  .00006424  00000-0  42117-3 0  9994,2 49433  53.2152 162.6751 0001423  84.6559 275.4596 15.08857493108397,6917.827,95.436,540.676,538.708,0.0
49433.0,STARLINK-3079,PAYLOAD,2023-10-20 01:06:09,15.08860176,0.0001492,53.2137,162.082,81.9378,278.1783,0.00059775,9.243e-05,0.0,0 STARLINK-3079,1 49433U 21104AB  23293.04593852  .00009243  00000-0  59775-3 0  9990,2 49433  53.2137 162.0820 0001492  81.9378 278.1783 15.08860176108419,6917.819,95.436,540.716,538.652,0.0
49433.0,STARLINK-3079,PAYLOAD,2023-10-20 15:24:37,15.08841528,0.0002444,53.2159,159.4062,88.051,272.0762,7.6123e-05,9.23e-06,0.0,0 STARLINK-3079,1 49433U 21104AB  23293.64210244  .00000923  00000-0  76123-4 0  9990,2 49433  53.2159 159.4062 0002444  88.0510 272.0762 15.08841528108505,6917.876,95.437,541.431,538.05,0.0
49433.0,STARLINK-3079,PAYLOAD,2023-10-20 21:46:10,15.08837891,0.0001342,53.2149,158.2149,106.999,253.1149,-2.2688e-05,-6.49e-06,0.0,0 STARLINK-3079,1 49433U 21104AB  23293.90706434 -.00000649  00000-0 -22688-4 0  9994,2 49433  53.2149 158.2149 0001342 106.9990 253.1149 15.08837891108546,6917.887,95.438,540.68,538.823,0.0
49433.0,STARLINK-3079,PAYLOAD,2023-10-21 00:56:56,15.08836723,0.0001316,53.2146,157.6212,106.372,253.7417,-2.17e-05,-6.33e-06,0.0,0 STARLINK-3079,1 49433U 21104AB  23294.03954524 -.00000633  00000-0 -21700-4 0  9991,2 49433  53.2146 157.6212 0001316 106.3720 253.7417 15.08836723108562,6917.89,95.438,540.666,538.845,0.0
